ONEWEB-0281             
1 48999U 21060AJ  25318.29894981  .00000046  00000+0  86749-4 0  9994
2 48999  87.9013 271.5660 0001781  82.7314 277.4020 13.16594707211355
ONEWEB-0282             
1 49000U 21060AK  25318.25302977  .00000088  00000+0  19784-3 0  9993
2 49000  87.9011 271.5863 0002080  80.8017 279.3349 13.16595270211322
ONEWEB-0283             
1 49001U 21060AL  25317.86196861  .00000104  00000+0  23925-3 0  9994
2 49001  87.9011 271.6647 0001995  84.3956 275.7402 13.16594367211280
ONEWEB-0284             
1 49002U 21060AM  25318.31161327  .00000068  00000+0  14348-3 0  9993
2 49002  87.9020 271.5622 0002066  70.8078 289.3276 13.16594877211329
ONEWEB-0285             
1 49075U 21075A   25318.22396818 -.00000035  00000+0 -13185-3 0  9998
2 49075  87.8970  33.3630 0001796  99.8200 260.3131 13.12440873207014
ONEWEB-0286             
1 49076U 21075B   25318.28209258  .00000424  00000+0  11426-2 0  9991
2 49076  87.8967  33.3859 0001552 103.0479 257.0823 13.12441287206379
ONEWEB-0287             
1 49077U 21075C   25318.26729141 -.00000031  00000+0 -11423-3 0  9992
2 49077  87.9143  48.6017 0001227  99.0993 261.0277 13.17652228205322
ONEWEB-0288             
1 49078U 21075D   25318.18166338 -.00000066  00000+0 -21804-3 0  9999
2 49078  87.8969  33.3669 0001720  95.4330 264.6995 13.12443241206982
ONEWEB-0289             
1 49079U 21075E   25318.30596839  .00000046  00000+0  86446-4 0  9997
2 49079  87.9128  48.6121 0001948  90.7734 269.3621 13.17650722205909
ONEWEB-0290             
1 49080U 21075F   25318.27910135 -.00000258  00000+0 -69834-3 0  9992
2 49080  87.9141  48.5771 0002242  92.3498 267.7890 13.17649080205319
ONEWEB-0291             
1 49081U 21075G   25318.26391263  .00000017  00000+0  98996-5 0  9991
2 49081  87.9145  48.5865 0001481  89.5628 270.5674 13.17651928205300
ONEWEB-0293             
1 49082U 21075H   25318.28921464  .00000058  00000+0  11702-3 0  9999
2 49082  87.9131  48.6047 0001785  98.5519 261.5815 13.17652215205335
ONEWEB-0294             
1 49083U 21075J   25318.26438883  .00000130  00000+0  32706-3 0  9994
2 49083  87.8970  33.3510 0002020  88.8170 271.3190 13.12442965206385
ONEWEB-0295             
1 49084U 21075K   25318.28838824  .00000014  00000+0  23821-5 0  9997
2 49084  87.9128  48.6093 0001471  91.9107 268.2194 13.17650002205297
ONEWEB-0296             
1 49085U 21075L   25318.16868674 -.00000414  00000+0 -11874-2 0  9999
2 49085  87.8968  33.3754 0001592  85.9637 274.1674 13.12443983206371
ONEWEB-0297             
1 49086U 21075M   25318.27574456  .00000463  00000+0  12527-2 0  9992
2 49086  87.8963  33.3877 0001585 100.5524 259.5783 13.12442209206990
ONEWEB-0298             
1 49087U 21075N   25318.29272693  .00000053  00000+0  10258-3 0  9998
2 49087  87.9130  48.6051 0001738 104.5390 255.5935 13.17652390205326
