[{"OBJECT_NAME":"ONEWEB-0281","OBJECT_ID":"2021-060AJ","EPOCH":"2025-11-14T07:10:29.263584","MEAN_MOTION":13.16594707,"ECCENTRICITY":0.00017817,"INCLINATION":87.9013,"RA_OF_ASC_NODE":271.566,"ARG_OF_PERICENTER":82.7314,"MEAN_ANOMALY":277.402,"EPHEMERIS_TYPE":0,"CLASSIFICATION_TYPE":"U","NORAD_CAT_ID":48999,"ELEMENT_SET_NO":999,"REV_AT_EPOCH":21135,"BSTAR":8.6749401e-5,"MEAN_MOTION_DOT":4.6e-7,"MEAN_MOTION_DDOT":0},{"OBJECT_NAME":"ONEWEB-0282","OBJECT_ID":"2021-060AK","EPOCH":"2025-11-14T06:04:21.772128","MEAN_MOTION":13.1659527,"ECCENTRICITY":0.00020801,"INCLINATION":87.9011,"RA_OF_ASC_NODE":271.5863,"ARG_OF_PERICENTER":80.8017,"MEAN_ANOMALY":279.3349,"EPHEMERIS_TYPE":0,"CLASSIFICATION_TYPE":"U","NORAD_CAT_ID":49000,"ELEMENT_SET_NO":999,"REV_AT_EPOCH":21132,"BSTAR":0.00019783684,"MEAN_MOTION_DOT":8.8e-7,"MEAN_MOTION_DDOT":0},{"OBJECT_NAME":"ONEWEB-0283","OBJECT_ID":"2021-060AL","EPOCH":"2025-11-13T20:41:14.087904","MEAN_MOTION":13.16594367,"ECCENTRICITY":0.0001995,"INCLINATION":87.9011,"RA_OF_ASC_NODE":271.6647,"ARG_OF_PERICENTER":84.3956,"MEAN_ANOMALY":275.7402,"EPHEMERIS_TYPE":0,"CLASSIFICATION_TYPE":"U","NORAD_CAT_ID":49001,"ELEMENT_SET_NO":999,"REV_AT_EPOCH":21128,"BSTAR":0.00023924852,"MEAN_MOTION_DOT":1.04e-6,"MEAN_MOTION_DDOT":0},{"OBJECT_NAME":"ONEWEB-0284","OBJECT_ID":"2021-060AM","EPOCH":"2025-11-14T07:28:43.386528","MEAN_MOTION":13.16594877,"ECCENTRICITY":0.0002066,"INCLINATION":87.902,"RA_OF_ASC_NODE":271.5622,"ARG_OF_PERICENTER":70.8078,"MEAN_ANOMALY":289.3276,"EPHEMERIS_TYPE":0,"CLASSIFICATION_TYPE":"U","NORAD_CAT_ID":49002,"ELEMENT_SET_NO":999,"REV_AT_EPOCH":21132,"BSTAR":0.0001434806,"MEAN_MOTION_DOT":6.8e-7,"MEAN_MOTION_DDOT":0},{"OBJECT_NAME":"ONEWEB-0285","OBJECT_ID":"2021-075A","EPOCH":"2025-11-14T05:22:30.850752","MEAN_MOTION":13.12440873,"ECCENTRICITY":0.00017961,"INCLINATION":87.897,"RA_OF_ASC_NODE":33.363,"ARG_OF_PERICENTER":99.82,"MEAN_ANOMALY":260.3131,"EPHEMERIS_TYPE":0,"CLASSIFICATION_TYPE":"U","NORAD_CAT_ID":49075,"ELEMENT_SET_NO":999,"REV_AT_EPOCH":20701,"BSTAR":-0.00013185357,"MEAN_MOTION_DOT":-3.5e-7,"MEAN_MOTION_DDOT":0},{"OBJECT_NAME":"ONEWEB-0286","OBJECT_ID":"2021-075B","EPOCH":"2025-11-14T06:46:12.798912","MEAN_MOTION":13.12441287,"ECCENTRICITY":0.00015526,"INCLINATION":87.8967,"RA_OF_ASC_NODE":33.3859,"ARG_OF_PERICENTER":103.0479,"MEAN_ANOMALY":257.0823,"EPHEMERIS_TYPE":0,"CLASSIFICATION_TYPE":"U","NORAD_CAT_ID":49076,"ELEMENT_SET_NO":999,"REV_AT_EPOCH":20637,"BSTAR":0.001142594,"MEAN_MOTION_DOT":4.24e-6,"MEAN_MOTION_DDOT":0},{"OBJECT_NAME":"ONEWEB-0287","OBJECT_ID":"2021-075C","EPOCH":"2025-11-14T06:24:53.977824","MEAN_MOTION":13.17652228,"ECCENTRICITY":0.00012274,"INCLINATION":87.9143,"RA_OF_ASC_NODE":48.6017,"ARG_OF_PERICENTER":99.0993,"MEAN_ANOMALY":261.0277,"EPHEMERIS_TYPE":0,"CLASSIFICATION_TYPE":"U","NORAD_CAT_ID":49077,"ELEMENT_SET_NO":999,"REV_AT_EPOCH":20532,"BSTAR":-0.00011423028,"MEAN_MOTION_DOT":-3.1e-7,"MEAN_MOTION_DDOT":0},{"OBJECT_NAME":"ONEWEB-0288","OBJECT_ID":"2021-075D","EPOCH":"2025-11-14T04:21:35.716032","MEAN_MOTION":13.12443241,"ECCENTRICITY":0.00017206,"INCLINATION":87.8969,"RA_OF_ASC_NODE":33.3669,"ARG_OF_PERICENTER":95.433,"MEAN_ANOMALY":264.6995,"EPHEMERIS_TYPE":0,"CLASSIFICATION_TYPE":"U","NORAD_CAT_ID":49078,"ELEMENT_SET_NO":999,"REV_AT_EPOCH":20698,"BSTAR":-0.00021803636,"MEAN_MOTION_DOT":-6.6e-7,"MEAN_MOTION_DDOT":0},{"OBJECT_NAME":"ONEWEB-0289","OBJECT_ID":"2021-075E","EPOCH":"2025-11-14T07:20:35.668896","MEAN_MOTION":13.17650722,"ECCENTRICITY":0.00019483,"INCLINATION":87.9128,"RA_OF_ASC_NODE":48.6121,"ARG_OF_PERICENTER":90.7734,"MEAN_ANOMALY":269.3621,"EPHEMERIS_TYPE":0,"CLASSIFICATION_TYPE":"U","NORAD_CAT_ID":49079,"ELEMENT_SET_NO":999,"REV_AT_EPOCH":20590,"BSTAR":8.644572e-5,"MEAN_MOTION_DOT":4.6e-7,"MEAN_MOTION_DDOT":0},{"OBJECT_NAME":"ONEWEB-0290","OBJECT_ID":"2021-075F","EPOCH":"2025-11-14T06:41:54.356640","MEAN_MOTION":13.1764908,"ECCENTRICITY":0.00022429,"INCLINATION":87.9141,"RA_OF_ASC_NODE":48.5771,"ARG_OF_PERICENTER":92.3498,"MEAN_ANOMALY":267.789,"EPHEMERIS_TYPE":0,"CLASSIFICATION_TYPE":"U","NORAD_CAT_ID":49080,"ELEMENT_SET_NO":999,"REV_AT_EPOCH":20531,"BSTAR":-0.00069833991,"MEAN_MOTION_DOT":-2.58e-6,"MEAN_MOTION_DDOT":0},{"OBJECT_NAME":"ONEWEB-0291","OBJECT_ID":"2021-075G","EPOCH":"2025-11-14T06:20:02.051232","MEAN_MOTION":13.17651928,"ECCENTRICITY":0.00014814,"INCLINATION":87.9145,"RA_OF_ASC_NODE":48.5865,"ARG_OF_PERICENTER":89.5628,"MEAN_ANOMALY":270.5674,"EPHEMERIS_TYPE":0,"CLASSIFICATION_TYPE":"U","NORAD_CAT_ID":49081,"ELEMENT_SET_NO":999,"REV_AT_EPOCH":20530,"BSTAR":9.899591e-6,"MEAN_MOTION_DOT":1.7e-7,"MEAN_MOTION_DDOT":0},{"OBJECT_NAME":"ONEWEB-0293","OBJECT_ID":"2021-075H","EPOCH":"2025-11-14T06:56:28.144896","MEAN_MOTION":13.17652215,"ECCENTRICITY":0.00017857,"INCLINATION":87.9131,"RA_OF_ASC_NODE":48.6047,"ARG_OF_PERICENTER":98.5519,"MEAN_ANOMALY":261.5815,"EPHEMERIS_TYPE":0,"CLASSIFICATION_TYPE":"U","NORAD_CAT_ID":49082,"ELEMENT_SET_NO":999,"REV_AT_EPOCH":20533,"BSTAR":0.00011702269,"MEAN_MOTION_DOT":5.8e-7,"MEAN_MOTION_DDOT":0},{"OBJECT_NAME":"ONEWEB-0294","OBJECT_ID":"2021-075J","EPOCH":"2025-11-14T06:20:43.194912","MEAN_MOTION":13.12442965,"ECCENTRICITY":0.00020204,"INCLINATION":87.897,"RA_OF_ASC_NODE":33.351,"ARG_OF_PERICENTER":88.817,"MEAN_ANOMALY":271.319,"EPHEMERIS_TYPE":0,"CLASSIFICATION_TYPE":"U","NORAD_CAT_ID":49083,"ELEMENT_SET_NO":999,"REV_AT_EPOCH":20638,"BSTAR":0.00032706308,"MEAN_MOTION_DOT":1.3e-6,"MEAN_MOTION_DDOT":0},{"OBJECT_NAME":"ONEWEB-0295","OBJECT_ID":"2021-075K","EPOCH":"2025-11-14T06:55:16.743936","MEAN_MOTION":13.17650002,"ECCENTRICITY":0.00014719,"INCLINATION":87.9128,"RA_OF_ASC_NODE":48.6093,"ARG_OF_PERICENTER":91.9107,"MEAN_ANOMALY":268.2194,"EPHEMERIS_TYPE":0,"CLASSIFICATION_TYPE":"U","NORAD_CAT_ID":49084,"ELEMENT_SET_NO":999,"REV_AT_EPOCH":20529,"BSTAR":2.382095e-6,"MEAN_MOTION_DOT":1.4e-7,"MEAN_MOTION_DDOT":0},{"OBJECT_NAME":"ONEWEB-0296","OBJECT_ID":"2021-075L","EPOCH":"2025-11-14T04:02:54.534336","MEAN_MOTION":13.12443983,"ECCENTRICITY":0.00015924,"INCLINATION":87.8968,"RA_OF_ASC_NODE":33.3754,"ARG_OF_PERICENTER":85.9637,"MEAN_ANOMALY":274.1674,"EPHEMERIS_TYPE":0,"CLASSIFICATION_TYPE":"U","NORAD_CAT_ID":49085,"ELEMENT_SET_NO":999,"REV_AT_EPOCH":20637,"BSTAR":-0.0011873661,"MEAN_MOTION_DOT":-4.14e-6,"MEAN_MOTION_DDOT":0},{"OBJECT_NAME":"ONEWEB-0297","OBJECT_ID":"2021-075M","EPOCH":"2025-11-14T06:37:04.329984","MEAN_MOTION":13.12442209,"ECCENTRICITY":0.00015856,"INCLINATION":87.8963,"RA_OF_ASC_NODE":33.3877,"ARG_OF_PERICENTER":100.5524,"MEAN_ANOMALY":259.5783,"EPHEMERIS_TYPE":0,"CLASSIFICATION_TYPE":"U","NORAD_CAT_ID":49086,"ELEMENT_SET_NO":999,"REV_AT_EPOCH":20699,"BSTAR":0.0012527042,"MEAN_MOTION_DOT":4.63e-6,"MEAN_MOTION_DDOT":0},{"OBJECT_NAME":"ONEWEB-0298","OBJECT_ID":"2021-075N","EPOCH":"2025-11-14T07:01:31.606752","MEAN_MOTION":13.1765239,"ECCENTRICITY":0.0001738,"INCLINATION":87.913,"RA_OF_ASC_NODE":48.6051,"ARG_OF_PERICENTER":104.539,"MEAN_ANOMALY":255.5935,"EPHEMERIS_TYPE":0,"CLASSIFICATION_TYPE":"U","NORAD_CAT_ID":49087,"ELEMENT_SET_NO":999,"REV_AT_EPOCH":20532,"BSTAR":0.00010257564,"MEAN_MOTION_DOT":5.3e-7,"MEAN_MOTION_DDOT":0}]
